start=new Date('2022-01-04T00:00:00.000Z').valueOf();
sats=[{"RCS_SIZE":"LARGE","EPHEMERIS_TYPE":"0","PERIAPSIS":"325.120","FILE":"3256392","MEAN_MOTION_DOT":"-0.00805298","GP_ID":"192994660","CLASSIFICATION_TYPE":"U","ARG_OF_PERICENTER":"95.0475","SITE":"AFWTR","REV_AT_EPOCH":"515","INCLINATION":"53.2175","MEAN_MOTION_DDOT":"0.0000000000000","MEAN_ANOMALY":"49.3371","ELEMENT_SET_NO":"999","OBJECT_ID":"2021-125AG","TLE_LINE2":"2 50186  53.2175 292.4213 0001065  95.0475  49.3371 15.81629472  5153","ECCENTRICITY":"0.00010650","BSTAR":"-0.00431670000000","APOAPSIS":"326.548","NORAD_CAT_ID":"50186","MEAN_MOTION":"15.81629472","TIME_SYSTEM":"UTC","OBJECT_NAME":"STARLINK-3274","COUNTRY_CODE":"US","DECAY_DATE":null,"LAUNCH_DATE":"2021-12-18","PERIOD":"91.045","MEAN_ELEMENT_THEORY":"SGP4","EPOCH":"2022-01-02T08:00:01.999872","OBJECT_TYPE":"PAYLOAD","SEMIMAJOR_AXIS":"6703.969","REF_FRAME":"TEME","CENTER_NAME":"EARTH","RA_OF_ASC_NODE":"292.4213","TLE_LINE1":"1 50186U 21125AG  22002.33335648 -.00805298  00000-0 -43167-2 0  9999"},{"REF_FRAME":"TEME","CENTER_NAME":"EARTH","TLE_LINE1":"1 50187U 21125AH  22002.25001157 -.00817174  00000-0 -43458-2 0  9995","RA_OF_ASC_NODE":"292.8347","PERIOD":"91.034","EPOCH":"2022-01-02T06:00:00.999648","MEAN_ELEMENT_THEORY":"SGP4","OBJECT_TYPE":"PAYLOAD","SEMIMAJOR_AXIS":"6703.405","COUNTRY_CODE":"US","DECAY_DATE":null,"LAUNCH_DATE":"2021-12-18","MEAN_MOTION":"15.81829098","NORAD_CAT_ID":"50187","APOAPSIS":"325.900","TIME_SYSTEM":"UTC","OBJECT_NAME":"STARLINK-3272","ECCENTRICITY":"0.00009390","BSTAR":"-0.00434580000000","TLE_LINE2":"2 50187  53.2174 292.8347 0000939  97.4774 294.0795 15.81829098  2536","OBJECT_ID":"2021-125AH","GP_ID":"192994663","MEAN_MOTION_DOT":"-0.00817174","CLASSIFICATION_TYPE":"U","SITE":"AFWTR","INCLINATION":"53.2174","REV_AT_EPOCH":"253","ARG_OF_PERICENTER":"97.4774","MEAN_MOTION_DDOT":"0.0000000000000","ELEMENT_SET_NO":"999","MEAN_ANOMALY":"294.0795","EPHEMERIS_TYPE":"0","RCS_SIZE":"LARGE","PERIAPSIS":"324.641","FILE":"3256392"},{"MEAN_ANOMALY":"289.6573","ELEMENT_SET_NO":"999","MEAN_MOTION_DDOT":"0.0000000000000","ARG_OF_PERICENTER":"101.1958","SITE":"AFWTR","INCLINATION":"53.2175","REV_AT_EPOCH":"253","GP_ID":"192994665","MEAN_MOTION_DOT":"-0.00817992","CLASSIFICATION_TYPE":"U","FILE":"3256392","PERIAPSIS":"324.672","EPHEMERIS_TYPE":"0","RCS_SIZE":"LARGE","BSTAR":"-0.00435310000000","ECCENTRICITY":"0.00009450","OBJECT_ID":"2021-125AJ","TLE_LINE2":"2 50188  53.2175 292.8361 0000945 101.1958 289.6573 15.81816682  2537","LAUNCH_DATE":"2021-12-18","DECAY_DATE":null,"COUNTRY_CODE":"US","OBJECT_NAME":"STARLINK-3275","TIME_SYSTEM":"UTC","APOAPSIS":"325.939","NORAD_CAT_ID":"50188","MEAN_MOTION":"15.81816682","RA_OF_ASC_NODE":"292.8361","TLE_LINE1":"1 50188U 21125AJ  22002.25001157 -.00817992  00000-0 -43531-2 0  9996","CENTER_NAME":"EARTH","REF_FRAME":"TEME","SEMIMAJOR_AXIS":"6703.440","OBJECT_TYPE":"PAYLOAD","MEAN_ELEMENT_THEORY":"SGP4","EPOCH":"2022-01-02T06:00:00.999648","PERIOD":"91.035"},{"COUNTRY_CODE":"US","LAUNCH_DATE":"2021-12-18","DECAY_DATE":null,"NORAD_CAT_ID":"50189","APOAPSIS":"326.585","MEAN_MOTION":"15.81608051","OBJECT_NAME":"STARLINK-3276","TIME_SYSTEM":"UTC","CENTER_NAME":"EARTH","REF_FRAME":"TEME","RA_OF_ASC_NODE":"292.4241","TLE_LINE1":"1 50189U 21125AK  22002.33335648 -.00818117  00000-0 -43965-2 0  9992","MEAN_ELEMENT_THEORY":"SGP4","EPOCH":"2022-01-02T08:00:01.999872","PERIOD":"91.047","SEMIMAJOR_AXIS":"6704.030","OBJECT_TYPE":"PAYLOAD","ARG_OF_PERICENTER":"79.3245","SITE":"AFWTR","INCLINATION":"53.2176","REV_AT_EPOCH":"515","GP_ID":"192994158","CLASSIFICATION_TYPE":"U","MEAN_MOTION_DOT":"-0.00818117","MEAN_ANOMALY":"63.7085","ELEMENT_SET_NO":"999","MEAN_MOTION_DDOT":"0.0000000000000","PERIAPSIS":"325.204","EPHEMERIS_TYPE":"0","RCS_SIZE":"LARGE","FILE":"3256392","BSTAR":"-0.00439650000000","ECCENTRICITY":"0.00010300","OBJECT_ID":"2021-125AK","TLE_LINE2":"2 50189  53.2176 292.4241 0001030  79.3245  63.7085 15.81608051  5152"},{"BSTAR":"-0.00433350000000","ECCENTRICITY":"0.00009440","TLE_LINE2":"2 50190  53.2174 292.8305 0000944  86.8723 306.6968 15.81873607  5143","OBJECT_ID":"2021-125AL","ELEMENT_SET_NO":"999","MEAN_ANOMALY":"306.6968","MEAN_MOTION_DDOT":"0.0000000000000","INCLINATION":"53.2174","SITE":"AFWTR","REV_AT_EPOCH":"514","ARG_OF_PERICENTER":"86.8723","CLASSIFICATION_TYPE":"U","GP_ID":"192994166","MEAN_MOTION_DOT":"-0.00816621","FILE":"3256392","PERIAPSIS":"324.512","EPHEMERIS_TYPE":"0","RCS_SIZE":"LARGE","TLE_LINE1":"1 50190U 21125AL  22002.25001157 -.00816621  00000-0 -43335-2 0  9999","RA_OF_ASC_NODE":"292.8305","CENTER_NAME":"EARTH","REF_FRAME":"TEME","SEMIMAJOR_AXIS":"6703.279","OBJECT_TYPE":"PAYLOAD","EPOCH":"2022-01-02T06:00:00.999648","MEAN_ELEMENT_THEORY":"SGP4","PERIOD":"91.031","LAUNCH_DATE":"2021-12-18","DECAY_DATE":null,"COUNTRY_CODE":"US","OBJECT_NAME":"STARLINK-3268","TIME_SYSTEM":"UTC","MEAN_MOTION":"15.81873607","NORAD_CAT_ID":"50190","APOAPSIS":"325.777"},{"COUNTRY_CODE":"US","DECAY_DATE":null,"LAUNCH_DATE":"2021-12-18","APOAPSIS":"326.483","NORAD_CAT_ID":"50191","MEAN_MOTION":"15.81651699","TIME_SYSTEM":"UTC","OBJECT_NAME":"STARLINK-3273","REF_FRAME":"TEME","CENTER_NAME":"EARTH","RA_OF_ASC_NODE":"292.4199","TLE_LINE1":"1 50191U 21125AM  22002.33335648 -.00816150  00000-0 -43759-2 0  9991","PERIOD":"91.044","MEAN_ELEMENT_THEORY":"SGP4","EPOCH":"2022-01-02T08:00:01.999872","OBJECT_TYPE":"PAYLOAD","SEMIMAJOR_AXIS":"6703.906","GP_ID":"192994159","MEAN_MOTION_DOT":"-0.00816150","CLASSIFICATION_TYPE":"U","ARG_OF_PERICENTER":"95.3139","INCLINATION":"53.2175","SITE":"AFWTR","REV_AT_EPOCH":"254","MEAN_MOTION_DDOT":"0.0000000000000","MEAN_ANOMALY":"49.7506","ELEMENT_SET_NO":"999","EPHEMERIS_TYPE":"0","RCS_SIZE":"LARGE","PERIAPSIS":"325.060","FILE":"3256392","ECCENTRICITY":"0.00010610","BSTAR":"-0.00437590000000","OBJECT_ID":"2021-125AM","TLE_LINE2":"2 50191  53.2175 292.4199 0001061  95.3139  49.7506 15.81651699  2548"},{"ECCENTRICITY":"0.00011290","BSTAR":"-0.00433900000000","TLE_LINE2":"2 50192  53.2176 293.2467 0001129  98.6619 180.7159 15.82038658  2524","OBJECT_ID":"2021-125AN","MEAN_MOTION_DDOT":"0.0000000000000","ELEMENT_SET_NO":"999","MEAN_ANOMALY":"180.7159","GP_ID":"192994659","CLASSIFICATION_TYPE":"U","MEAN_MOTION_DOT":"-0.00823429","INCLINATION":"53.2176","SITE":"AFWTR","REV_AT_EPOCH":"252","ARG_OF_PERICENTER":"98.6619","FILE":"3256392","RCS_SIZE":"LARGE","EPHEMERIS_TYPE":"0","PERIAPSIS":"323.921","TLE_LINE1":"1 50192U 21125AN  22002.16667824 -.00823429  00000-0 -43390-2 0  9995","RA_OF_ASC_NODE":"293.2467","REF_FRAME":"TEME","CENTER_NAME":"EARTH","OBJECT_TYPE":"PAYLOAD","SEMIMAJOR_AXIS":"6702.813","PERIOD":"91.022","EPOCH":"2022-01-02T04:00:00.999936","MEAN_ELEMENT_THEORY":"SGP4","DECAY_DATE":null,"LAUNCH_DATE":"2021-12-18","COUNTRY_CODE":"US","OBJECT_NAME":"STARLINK-3259","TIME_SYSTEM":"UTC","MEAN_MOTION":"15.82038658","APOAPSIS":"325.435","NORAD_CAT_ID":"50192"},{"BSTAR":"-0.00434560000000","ECCENTRICITY":"0.00009440","OBJECT_ID":"2021-125AP","TLE_LINE2":"2 50193  53.2175 292.8333 0000944 104.5463 287.6801 15.81844736  2824","ARG_OF_PERICENTER":"104.5463","SITE":"AFWTR","REV_AT_EPOCH":"282","INCLINATION":"53.2175","GP_ID":"192921701","CLASSIFICATION_TYPE":"U","MEAN_MOTION_DOT":"-0.00817688","MEAN_ANOMALY":"287.6801","ELEMENT_SET_NO":"999","MEAN_MOTION_DDOT":"0.0000000000000","PERIAPSIS":"324.593","RCS_SIZE":"LARGE","EPHEMERIS_TYPE":"0","FILE":"3255248","CENTER_NAME":"EARTH","REF_FRAME":"TEME","RA_OF_ASC_NODE":"292.8333","TLE_LINE1":"1 50193U 21125AP  22002.25001157 -.00817688  00000-0 -43456-2 0  9990","MEAN_ELEMENT_THEORY":"SGP4","EPOCH":"2022-01-02T06:00:00.999648","PERIOD":"91.033","SEMIMAJOR_AXIS":"6703.361","OBJECT_TYPE":"PAYLOAD","COUNTRY_CODE":"US","LAUNCH_DATE":"2021-12-18","DECAY_DATE":null,"APOAPSIS":"325.859","NORAD_CAT_ID":"50193","MEAN_MOTION":"15.81844736","TIME_SYSTEM":"UTC","OBJECT_NAME":"STARLINK-3261"},{"OBJECT_ID":"2021-125AQ","TLE_LINE2":"2 50194  53.2177 293.2454 0001156 106.9712 173.0509 15.82055407  2806","ECCENTRICITY":"0.00011560","BSTAR":"-0.00434030000000","FILE":"3255248","RCS_SIZE":"LARGE","EPHEMERIS_TYPE":"0","PERIAPSIS":"323.856","MEAN_MOTION_DDOT":"0.0000000000000","MEAN_ANOMALY":"173.0509","ELEMENT_SET_NO":"999","GP_ID":"192920449","CLASSIFICATION_TYPE":"U","MEAN_MOTION_DOT":"-0.00824254","ARG_OF_PERICENTER":"106.9712","REV_AT_EPOCH":"280","SITE":"AFWTR","INCLINATION":"53.2177","OBJECT_TYPE":"PAYLOAD","SEMIMAJOR_AXIS":"6702.766","PERIOD":"91.021","MEAN_ELEMENT_THEORY":"SGP4","EPOCH":"2022-01-02T04:00:00.999936","RA_OF_ASC_NODE":"293.2454","TLE_LINE1":"1 50194U 21125AQ  22002.16667824 -.00824254  00000-0 -43403-2 0  9999","REF_FRAME":"TEME","CENTER_NAME":"EARTH","OBJECT_NAME":"STARLINK-3269","TIME_SYSTEM":"UTC","NORAD_CAT_ID":"50194","APOAPSIS":"325.406","MEAN_MOTION":"15.82055407","DECAY_DATE":null,"LAUNCH_DATE":"2021-12-18","COUNTRY_CODE":"US"},{"ECCENTRICITY":"0.00009520","BSTAR":"-0.00435360000000","TLE_LINE2":"2 50195  53.2180 292.8319 0000952 112.7406 280.1639 15.81862146  5143","OBJECT_ID":"2021-125AR","MEAN_MOTION_DDOT":"0.0000000000000","ELEMENT_SET_NO":"999","MEAN_ANOMALY":"280.1639","CLASSIFICATION_TYPE":"U","GP_ID":"192994662","MEAN_MOTION_DOT":"-0.00819675","SITE":"AFWTR","INCLINATION":"53.2180","REV_AT_EPOCH":"514","ARG_OF_PERICENTER":"112.7406","FILE":"3256392","RCS_SIZE":"LARGE","EPHEMERIS_TYPE":"0","PERIAPSIS":"324.539","TLE_LINE1":"1 50195U 21125AR  22002.25001157 -.00819675  00000-0 -43536-2 0  9999","RA_OF_ASC_NODE":"292.8319","REF_FRAME":"TEME","CENTER_NAME":"EARTH","OBJECT_TYPE":"PAYLOAD","SEMIMAJOR_AXIS":"6703.312","PERIOD":"91.032","EPOCH":"2022-01-02T06:00:00.999648","MEAN_ELEMENT_THEORY":"SGP4","DECAY_DATE":null,"LAUNCH_DATE":"2021-12-18","COUNTRY_CODE":"US","TIME_SYSTEM":"UTC","OBJECT_NAME":"STARLINK-3266","MEAN_MOTION":"15.81862146","APOAPSIS":"325.815","NORAD_CAT_ID":"50195"}];
